{
  "type": "FeatureCollection",
  "features": [
    {
      "type": "Feature",
      "properties": {
        "name": "1200 Promenade",
        "type": "CPN",
        "status": "autofilled",
        "residual_ft": ""
      },
      "geometry": {
        "type": "Point",
        "coordinates": [
          -119.199814313894,
          40.78938910561215
        ]
      }
    },
    {
      "type": "Feature",
      "properties": {
        "name": "3 & B Plaza",
        "type": "CPN",
        "status": "autofilled",
        "residual_ft": ""
      },
      "geometry": {
        "type": "Point",
        "coordinates": [
          -119.1947989135175,
          40.78072308263079
        ]
      }
    },
    {
      "type": "Feature",
      "properties": {
        "name": "300 Portal",
        "type": "CPN",
        "status": "autofilled",
        "residual_ft": ""
      },
      "geometry": {
        "type": "Point",
        "coordinates": [
          -119.1966242537715,
          40.78211097114753
        ]
      }
    },
    {
      "type": "Feature",
      "properties": {
        "name": "300 Promenade",
        "type": "CPN",
        "status": "autofilled",
        "residual_ft": ""
      },
      "geometry": {
        "type": "Point",
        "coordinates": [
          -119.19984082997529,
          40.78455647266593
        ]
      }
    },
    {
      "type": "Feature",
      "properties": {
        "name": "430 & G Plaza",
        "type": "CPN",
        "status": "autofilled",
        "residual_ft": ""
      },
      "geometry": {
        "type": "Point",
        "coordinates": [
          -119.20300759054336,
          40.77371916324035
        ]
      }
    },
    {
      "type": "Feature",
      "properties": {
        "name": "430 Portal",
        "type": "CPN",
        "status": "autofilled",
        "residual_ft": ""
      },
      "geometry": {
        "type": "Point",
        "coordinates": [
          -119.2030073518096,
          40.78010161506504
        ]
      }
    },
    {
      "type": "Feature",
      "properties": {
        "name": "600 Portal",
        "type": "CPN",
        "status": "autofilled",
        "residual_ft": ""
      },
      "geometry": {
        "type": "Point",
        "coordinates": [
          -119.20873507652877,
          40.78260934846878
        ]
      }
    },
    {
      "type": "Feature",
      "properties": {
        "name": "600 Promenade",
        "type": "CPN",
        "status": "autofilled",
        "residual_ft": ""
      },
      "geometry": {
        "type": "Point",
        "coordinates": [
          -119.20587102683308,
          40.78478607319462
        ]
      }
    },
    {
      "type": "Feature",
      "properties": {
        "name": "730 & G Plaza",
        "type": "CPN",
        "status": "autofilled",
        "residual_ft": ""
      },
      "geometry": {
        "type": "Point",
        "coordinates": [
          -119.22043120475664,
          40.78696250049424
        ]
      }
    },
    {
      "type": "Feature",
      "properties": {
        "name": "730 Portal",
        "type": "CPN",
        "status": "autofilled",
        "residual_ft": ""
      },
      "geometry": {
        "type": "Point",
        "coordinates": [
          -119.21203449196717,
          40.78696328621901
        ]
      }
    },
    {
      "type": "Feature",
      "properties": {
        "name": "9 & B Plaza",
        "type": "CPN",
        "status": "autofilled",
        "residual_ft": ""
      },
      "geometry": {
        "type": "Point",
        "coordinates": [
          -119.21121681572706,
          40.79320322334186
        ]
      }
    },
    {
      "type": "Feature",
      "properties": {
        "name": "900 Portal",
        "type": "CPN",
        "status": "autofilled",
        "residual_ft": ""
      },
      "geometry": {
        "type": "Point",
        "coordinates": [
          -119.2093906684439,
          40.79181539977567
        ]
      }
    },
    {
      "type": "Feature",
      "properties": {
        "name": "900 Promenade",
        "type": "CPN",
        "status": "autofilled",
        "residual_ft": ""
      },
      "geometry": {
        "type": "Point",
        "coordinates": [
          -119.20619845276589,
          40.78938923132818
        ]
      }
    },
    {
      "type": "Feature",
      "properties": {
        "name": "Airport",
        "type": "CPN",
        "status": "autofilled",
        "residual_ft": ""
      },
      "geometry": {
        "type": "Point",
        "coordinates": [
          -119.20522769885244,
          40.764260805361914
        ]
      }
    },
    {
      "type": "Feature",
      "properties": {
        "name": "Center Camp Plaza",
        "type": "CPN",
        "status": "autofilled",
        "residual_ft": ""
      },
      "geometry": {
        "type": "Point",
        "coordinates": [
          -119.21073542116683,
          40.78108859485657
        ]
      }
    },
    {
      "type": "Feature",
      "properties": {
        "name": "HEaT",
        "type": "CPN",
        "status": "autofilled",
        "residual_ft": ""
      },
      "geometry": {
        "type": "Point",
        "coordinates": [
          -119.20740945495234,
          40.780289346242796
        ]
      }
    },
    {
      "type": "Feature",
      "properties": {
        "name": "Media Mecca",
        "type": "CPN",
        "status": "autofilled",
        "residual_ft": ""
      },
      "geometry": {
        "type": "Point",
        "coordinates": [
          -119.21144013276063,
          40.7830203541463
        ]
      }
    },
    {
      "type": "Feature",
      "properties": {
        "name": "Rampart",
        "type": "CPN",
        "status": "autofilled",
        "residual_ft": ""
      },
      "geometry": {
        "type": "Point",
        "coordinates": [
          -119.20676581714751,
          40.78006572934969
        ]
      }
    },
    {
      "type": "Feature",
      "properties": {
        "name": "ESD Station 3",
        "type": "CPN",
        "status": "autofilled",
        "residual_ft": ""
      },
      "geometry": {
        "type": "Point",
        "coordinates": [
          -119.19410480217866,
          40.77991305956595
        ]
      }
    },
    {
      "type": "Feature",
      "properties": {
        "name": "ESD Station 9",
        "type": "CPN",
        "status": "autofilled",
        "residual_ft": ""
      },
      "geometry": {
        "type": "Point",
        "coordinates": [
          -119.21191040515154,
          40.79401234334902
        ]
      }
    },
    {
      "type": "Feature",
      "properties": {
        "name": "Playa Info",
        "type": "CPN",
        "status": "autofilled",
        "residual_ft": ""
      },
      "geometry": {
        "type": "Point",
        "coordinates": [
          -119.20816894189439,
          40.781580295551116
        ]
      }
    },
    {
      "type": "Feature",
      "properties": {
        "name": "Greeters",
        "type": "CPN",
        "status": "autofilled",
        "residual_ft": ""
      },
      "geometry": {
        "type": "Point",
        "coordinates": [
          -119.22052822063718,
          40.773629795499446
        ]
      }
    },
    {
      "type": "Feature",
      "properties": {
        "name": "Point 2",
        "type": "CPN",
        "status": "autofilled",
        "residual_ft": ""
      },
      "geometry": {
        "type": "Point",
        "coordinates": [
          -119.21652877349912,
          40.80723838236301
        ]
      }
    },
    {
      "type": "Feature",
      "properties": {
        "name": "Point 3",
        "type": "CPN",
        "status": "autofilled",
        "residual_ft": ""
      },
      "geometry": {
        "type": "Point",
        "coordinates": [
          -119.18184319878658,
          40.80304184622294
        ]
      }
    },
    {
      "type": "Feature",
      "properties": {
        "name": "Point 4",
        "type": "CPN",
        "status": "autofilled",
        "residual_ft": ""
      },
      "geometry": {
        "type": "Point",
        "coordinates": [
          -119.17636308449364,
          40.776598066566216
        ]
      }
    },
    {
      "type": "Feature",
      "properties": {
        "name": "Point 5",
        "type": "CPN",
        "status": "autofilled",
        "residual_ft": ""
      },
      "geometry": {
        "type": "Point",
        "coordinates": [
          -119.20770714150203,
          40.76450393316445
        ]
      }
    },
    {
      "type": "Feature",
      "properties": {
        "name": "3 & G Plaza",
        "type": "CPN",
        "status": "autofilled",
        "residual_ft": ""
      },
      "geometry": {
        "type": "Point",
        "coordinates": [
          -119.19068867816416,
          40.77759756793866
        ]
      }
    },
    {
      "type": "Feature",
      "properties": {
        "name": "9 & G Plaza",
        "type": "CPN",
        "status": "autofilled",
        "residual_ft": ""
      },
      "geometry": {
        "type": "Point",
        "coordinates": [
          -119.2153289742146,
          40.79632799813573
        ]
      }
    },
    {
      "type": "Feature",
      "properties": {
        "name": "6 & G Plaza",
        "type": "CPN",
        "status": "autofilled",
        "residual_ft": ""
      },
      "geometry": {
        "type": "Point",
        "coordinates": [
          -119.2153270462557,
          40.77759745484679
        ]
      }
    },
    {
      "type": "Feature",
      "properties": {
        "name": "ESD Station 6",
        "type": "CPN",
        "status": "autofilled",
        "residual_ft": ""
      },
      "geometry": {
        "type": "Point",
        "coordinates": [
          -119.20652398949014,
          40.78050951410687
        ]
      }
    },
    {
      "type": "Feature",
      "properties": {
        "name": "Center Camp",
        "type": "CPN",
        "status": "entered",
        "residual_ft": "0.0"
      },
      "geometry": {
        "type": "Point",
        "coordinates": [
          -119.21073542116683,
          40.78108859485657
        ]
      }
    },
    {
      "type": "Feature",
      "properties": {
        "name": "The Man",
        "type": "CPN",
        "status": "entered",
        "residual_ft": "0.0"
      },
      "geometry": {
        "type": "Point",
        "coordinates": [
          -119.20300709606865,
          40.78696344894566
        ]
      }
    },
    {
      "type": "Feature",
      "properties": {
        "name": "The Temple",
        "type": "CPN",
        "status": "autofilled",
        "residual_ft": ""
      },
      "geometry": {
        "type": "Point",
        "coordinates": [
          -119.19662192568717,
          40.791815151314246
        ]
      }
    },
    {
      "type": "Feature",
      "properties": {
        "name": "Ranger Station Berlin",
        "type": "CPN",
        "status": "autofilled",
        "residual_ft": ""
      },
      "geometry": {
        "type": "Point",
        "coordinates": [
          -119.19373583263452,
          40.78019788893365
        ]
      }
    },
    {
      "type": "Feature",
      "properties": {
        "name": "Ranger Station Tokyo",
        "type": "CPN",
        "status": "autofilled",
        "residual_ft": ""
      },
      "geometry": {
        "type": "Point",
        "coordinates": [
          -119.21234532181956,
          40.79377881355919
        ]
      }
    },
    {
      "type": "Feature",
      "properties": {
        "name": "Ranger HQ",
        "type": "CPN",
        "status": "autofilled",
        "residual_ft": ""
      },
      "geometry": {
        "type": "Point",
        "coordinates": [
          -119.21150344981744,
          40.783641371074935
        ]
      }
    },
    {
      "type": "Feature",
      "properties": {
        "name": "Hell Station",
        "type": "CPN",
        "status": "autofilled",
        "residual_ft": ""
      },
      "geometry": {
        "type": "Point",
        "coordinates": [
          -119.21433892858248,
          40.80182360505803
        ]
      }
    },
    {
      "type": "Feature",
      "properties": {
        "name": "Ice Nine Arctica",
        "type": "CPN",
        "status": "autofilled",
        "residual_ft": ""
      },
      "geometry": {
        "type": "Point",
        "coordinates": [
          -119.21595370750637,
          40.79643402962775
        ]
      }
    },
    {
      "type": "Feature",
      "properties": {
        "name": "Arctica Center Camp",
        "type": "CPN",
        "status": "autofilled",
        "residual_ft": ""
      },
      "geometry": {
        "type": "Point",
        "coordinates": [
          -119.21188682937762,
          40.78199433351803
        ]
      }
    },
    {
      "type": "Feature",
      "properties": {
        "name": "Ice Cubed Arctica 3",
        "type": "CPN",
        "status": "autofilled",
        "residual_ft": ""
      },
      "geometry": {
        "type": "Point",
        "coordinates": [
          -119.19003380548322,
          40.777478588183364
        ]
      }
    },
    {
      "type": "Feature",
      "properties": {
        "name": "Department of Mutant Vehicles (DMV)",
        "type": "CPN",
        "status": "autofilled",
        "residual_ft": ""
      },
      "geometry": {
        "type": "Point",
        "coordinates": [
          -119.20758627068972,
          40.78267761850153
        ]
      }
    },
    {
      "type": "Feature",
      "properties": {
        "name": "Deep-Playa Music Zone (DMZ)",
        "type": "CPN",
        "status": "autofilled",
        "residual_ft": ""
      },
      "geometry": {
        "type": "Point",
        "coordinates": [
          -119.19888799251149,
          40.80291999743244
        ]
      }
    },
    {
      "type": "Feature",
      "properties": {
        "name": "Point 1",
        "type": "CPN",
        "status": "autofilled",
        "residual_ft": ""
      },
      "geometry": {
        "type": "Point",
        "coordinates": [
          -119.23254224243294,
          40.78342813098855
        ]
      }
    },
    {
      "type": "Feature",
      "properties": {
        "name": "430 & B Plaza",
        "type": "CPN",
        "status": "autofilled",
        "residual_ft": ""
      },
      "geometry": {
        "type": "Point",
        "coordinates": [
          -119.20300742590517,
          40.7781382655937
        ]
      }
    },
    {
      "type": "Feature",
      "properties": {
        "name": "730 & B Plaza",
        "type": "CPN",
        "status": "autofilled",
        "residual_ft": ""
      },
      "geometry": {
        "type": "Point",
        "coordinates": [
          -119.21461746333951,
          40.7869631099577
        ]
      }
    },
    {
      "type": "Feature",
      "properties": {
        "name": "BLM LE Substation",
        "type": "CPN",
        "status": "autofilled",
        "residual_ft": ""
      },
      "geometry": {
        "type": "Point",
        "coordinates": [
          -119.20608464277917,
          40.78038058974362
        ]
      }
    },
    {
      "type": "Feature",
      "properties": {
        "name": "Burner Express Bus Depot",
        "type": "CPN",
        "status": "autofilled",
        "residual_ft": ""
      },
      "geometry": {
        "type": "Point",
        "coordinates": [
          -119.2178439659555,
          40.7770715940801
        ]
      }
    },
    {
      "type": "Feature",
      "properties": {
        "name": "Walk-In Camp",
        "type": "CPN",
        "status": "autofilled",
        "residual_ft": ""
      },
      "geometry": {
        "type": "Point",
        "coordinates": [
          -119.19678444009844,
          40.769766519074565
        ]
      }
    },
    {
      "type": "Feature",
      "properties": {
        "name": "Box Office",
        "type": "CPN",
        "status": "autofilled",
        "residual_ft": ""
      },
      "geometry": {
        "type": "Point",
        "coordinates": [
          -119.23079553966586,
          40.77194424847075
        ]
      }
    },
    {
      "type": "Feature",
      "properties": {
        "name": "Gate Actual",
        "type": "CPN",
        "status": "autofilled",
        "residual_ft": ""
      },
      "geometry": {
        "type": "Point",
        "coordinates": [
          -119.22921346947784,
          40.77244253374971
        ]
      }
    },
    {
      "type": "Feature",
      "properties": {
        "name": "Will Call Lot",
        "type": "CPN",
        "status": "autofilled",
        "residual_ft": ""
      },
      "geometry": {
        "type": "Point",
        "coordinates": [
          -119.2321718503221,
          40.772123591604654
        ]
      }
    },
    {
      "type": "Feature",
      "properties": {
        "name": "D Lot",
        "type": "CPN",
        "status": "autofilled",
        "residual_ft": ""
      },
      "geometry": {
        "type": "Point",
        "coordinates": [
          -119.22895019478874,
          40.77189554916155
        ]
      }
    },
    {
      "type": "Feature",
      "properties": {
        "name": "Census Checkpoint",
        "type": "CPN",
        "status": "autofilled",
        "residual_ft": ""
      },
      "geometry": {
        "type": "Point",
        "coordinates": [
          -119.22306327409332,
          40.77128375830586
        ]
      }
    },
    {
      "type": "Feature",
      "properties": {
        "name": "Artery",
        "type": "CPN",
        "status": "autofilled",
        "residual_ft": ""
      },
      "geometry": {
        "type": "Point",
        "coordinates": [
          -119.209984277603,
          40.78309726494942
        ]
      }
    },
    {
      "type": "Feature",
      "properties": {
        "name": "Yellow Bike Project",
        "type": "CPN",
        "status": "autofilled",
        "residual_ft": ""
      },
      "geometry": {
        "type": "Point",
        "coordinates": [
          -119.2096693410537,
          40.777643598442125
        ]
      }
    },
    {
      "type": "Feature",
      "properties": {
        "name": "Recycle Camp",
        "type": "CPN",
        "status": "autofilled",
        "residual_ft": ""
      },
      "geometry": {
        "type": "Point",
        "coordinates": [
          -119.20815379348296,
          40.78066686171144
        ]
      }
    },
    {
      "type": "Feature",
      "properties": {
        "name": "Arctica Outpost",
        "type": "CPN",
        "status": "autofilled",
        "residual_ft": ""
      },
      "geometry": {
        "type": "Point",
        "coordinates": [
          -119.21910271255696,
          40.77741239315878
        ]
      }
    },
    {
      "type": "Feature",
      "properties": {
        "name": "10 & B Plaza",
        "type": "CPN",
        "status": "autofilled",
        "residual_ft": ""
      },
      "geometry": {
        "type": "Point",
        "coordinates": [
          -119.20645230185977,
          40.795392684937575
        ]
      }
    },
    {
      "type": "Feature",
      "properties": {
        "name": "2 & B Plaza",
        "type": "CPN",
        "status": "autofilled",
        "residual_ft": ""
      },
      "geometry": {
        "type": "Point",
        "coordinates": [
          -119.19191855978906,
          40.784343094634075
        ]
      }
    },
    {
      "type": "Feature",
      "properties": {
        "name": "Deep-Playa Music Zone 2 (DMZ2)",
        "type": "CPN",
        "status": "autofilled",
        "residual_ft": ""
      },
      "geometry": {
        "type": "Point",
        "coordinates": [
          -119.1794627384091,
          40.78216461468096
        ]
      }
    },
    {
      "type": "Feature",
      "properties": {
        "name": "3:00 & G Plaza",
        "type": "Plaza",
        "status": "autofilled",
        "residual_ft": ""
      },
      "geometry": {
        "type": "Point",
        "coordinates": [
          -119.1906909919259,
          40.77760251017639
        ]
      }
    },
    {
      "type": "Feature",
      "properties": {
        "name": "4:30 & G Plaza",
        "type": "Plaza",
        "status": "autofilled",
        "residual_ft": ""
      },
      "geometry": {
        "type": "Point",
        "coordinates": [
          -119.20300855825191,
          40.77372536134011
        ]
      }
    },
    {
      "type": "Feature",
      "properties": {
        "name": "6:00 & G Plaza",
        "type": "Plaza",
        "status": "autofilled",
        "residual_ft": ""
      },
      "geometry": {
        "type": "Point",
        "coordinates": [
          -119.21532526808036,
          40.77760406983954
        ]
      }
    },
    {
      "type": "Feature",
      "properties": {
        "name": "7:30 & G Plaza",
        "type": "Plaza",
        "status": "autofilled",
        "residual_ft": ""
      },
      "geometry": {
        "type": "Point",
        "coordinates": [
          -119.2204286055756,
          40.78696745925682
        ]
      }
    },
    {
      "type": "Feature",
      "properties": {
        "name": "9:00 & G Plaza",
        "type": "Plaza",
        "status": "autofilled",
        "residual_ft": ""
      },
      "geometry": {
        "type": "Point",
        "coordinates": [
          -119.21532666002297,
          40.79633150234119
        ]
      }
    },
    {
      "type": "Feature",
      "properties": {
        "name": "9:00 & B Plaza",
        "type": "Plaza",
        "status": "autofilled",
        "residual_ft": ""
      },
      "geometry": {
        "type": "Point",
        "coordinates": [
          -119.21121471639522,
          40.79320654612288
        ]
      }
    },
    {
      "type": "Feature",
      "properties": {
        "name": "7:30 & B Plaza",
        "type": "Plaza",
        "status": "autofilled",
        "residual_ft": ""
      },
      "geometry": {
        "type": "Point",
        "coordinates": [
          -119.21461514151062,
          40.78696782227647
        ]
      }
    },
    {
      "type": "Feature",
      "properties": {
        "name": "4:30 & B Plaza",
        "type": "Plaza",
        "status": "autofilled",
        "residual_ft": ""
      },
      "geometry": {
        "type": "Point",
        "coordinates": [
          -119.20300807026388,
          40.778144252331636
        ]
      }
    },
    {
      "type": "Feature",
      "properties": {
        "name": "3:00 & B Plaza",
        "type": "Plaza",
        "status": "autofilled",
        "residual_ft": ""
      },
      "geometry": {
        "type": "Point",
        "coordinates": [
          -119.19480101133446,
          40.78072820765811
        ]
      }
    },
    {
      "type": "Feature",
      "properties": {
        "name": "Center Camp Plaza",
        "type": "Plaza",
        "status": "autofilled",
        "residual_ft": ""
      },
      "geometry": {
        "type": "Point",
        "coordinates": [
          -119.21066351696506,
          40.781150466258005
        ]
      }
    },
    {
      "type": "Feature",
      "properties": {
        "name": "2:00 & B Plaza",
        "type": "Plaza",
        "status": "autofilled",
        "residual_ft": ""
      },
      "geometry": {
        "type": "Point",
        "coordinates": [
          -119.19190110968613,
          40.78432140432251
        ]
      }
    },
    {
      "type": "Feature",
      "properties": {
        "name": "10:00 & B Plaza",
        "type": "Plaza",
        "status": "autofilled",
        "residual_ft": ""
      },
      "geometry": {
        "type": "Point",
        "coordinates": [
          -119.20647384659165,
          40.79535673286917
        ]
      }
    }
  ]
}