{
  "type": "FeatureCollection",
  "features": [
    {
      "type": "Feature",
      "properties": {
        "name": "1200 Promenade",
        "type": "CPN",
        "status": "autofilled",
        "residual_ft": ""
      },
      "geometry": {
        "type": "Point",
        "coordinates": [
          -119.20469166899994,
          40.78567324100004
        ]
      }
    },
    {
      "type": "Feature",
      "properties": {
        "name": "3 & B Plaza",
        "type": "CPN",
        "status": "autofilled",
        "residual_ft": ""
      },
      "geometry": {
        "type": "Point",
        "coordinates": [
          -119.19967544699995,
          40.77700777200005
        ]
      }
    },
    {
      "type": "Feature",
      "properties": {
        "name": "300 Portal",
        "type": "CPN",
        "status": "autofilled",
        "residual_ft": ""
      },
      "geometry": {
        "type": "Point",
        "coordinates": [
          -119.20150089099997,
          40.77839550700003
        ]
      }
    },
    {
      "type": "Feature",
      "properties": {
        "name": "300 Promenade",
        "type": "CPN",
        "status": "autofilled",
        "residual_ft": ""
      },
      "geometry": {
        "type": "Point",
        "coordinates": [
          -119.20471764999996,
          40.78084073800005
        ]
      }
    },
    {
      "type": "Feature",
      "properties": {
        "name": "430 & G Plaza",
        "type": "CPN",
        "status": "autofilled",
        "residual_ft": ""
      },
      "geometry": {
        "type": "Point",
        "coordinates": [
          -119.20788312599996,
          40.77000352300007
        ]
      }
    },
    {
      "type": "Feature",
      "properties": {
        "name": "430 Portal",
        "type": "CPN",
        "status": "autofilled",
        "residual_ft": ""
      },
      "geometry": {
        "type": "Point",
        "coordinates": [
          -119.20788359299996,
          40.77638580100006
        ]
      }
    },
    {
      "type": "Feature",
      "properties": {
        "name": "600 Portal",
        "type": "CPN",
        "status": "autofilled",
        "residual_ft": ""
      },
      "geometry": {
        "type": "Point",
        "coordinates": [
          -119.21361143899998,
          40.77889310300003
        ]
      }
    },
    {
      "type": "Feature",
      "properties": {
        "name": "600 Promenade",
        "type": "CPN",
        "status": "autofilled",
        "residual_ft": ""
      },
      "geometry": {
        "type": "Point",
        "coordinates": [
          -119.21074770799999,
          40.781069950000074
        ]
      }
    },
    {
      "type": "Feature",
      "properties": {
        "name": "730 & G Plaza",
        "type": "CPN",
        "status": "autofilled",
        "residual_ft": ""
      },
      "geometry": {
        "type": "Point",
        "coordinates": [
          -119.22530772999994,
          40.78324539500005
        ]
      }
    },
    {
      "type": "Feature",
      "properties": {
        "name": "730 Portal",
        "type": "CPN",
        "status": "autofilled",
        "residual_ft": ""
      },
      "geometry": {
        "type": "Point",
        "coordinates": [
          -119.21691124599994,
          40.78324671300004
        ]
      }
    },
    {
      "type": "Feature",
      "properties": {
        "name": "9 & B Plaza",
        "type": "CPN",
        "status": "autofilled",
        "residual_ft": ""
      },
      "geometry": {
        "type": "Point",
        "coordinates": [
          -119.21609428199997,
          40.78948653200007
        ]
      }
    },
    {
      "type": "Feature",
      "properties": {
        "name": "900 Portal",
        "type": "CPN",
        "status": "autofilled",
        "residual_ft": ""
      },
      "geometry": {
        "type": "Point",
        "coordinates": [
          -119.21426803099996,
          40.78809886200003
        ]
      }
    },
    {
      "type": "Feature",
      "properties": {
        "name": "900 Promenade",
        "type": "CPN",
        "status": "autofilled",
        "residual_ft": ""
      },
      "geometry": {
        "type": "Point",
        "coordinates": [
          -119.21107563399994,
          40.785672962000035
        ]
      }
    },
    {
      "type": "Feature",
      "properties": {
        "name": "Airport",
        "type": "CPN",
        "status": "autofilled",
        "residual_ft": ""
      },
      "geometry": {
        "type": "Point",
        "coordinates": [
          -119.21010212799996,
          40.760545282000066
        ]
      }
    },
    {
      "type": "Feature",
      "properties": {
        "name": "Center Camp Plaza",
        "type": "CPN",
        "status": "autofilled",
        "residual_ft": ""
      },
      "geometry": {
        "type": "Point",
        "coordinates": [
          -119.21561156099995,
          40.777372264000064
        ]
      }
    },
    {
      "type": "Feature",
      "properties": {
        "name": "HEaT",
        "type": "CPN",
        "status": "autofilled",
        "residual_ft": ""
      },
      "geometry": {
        "type": "Point",
        "coordinates": [
          -119.21228559699995,
          40.776573248000034
        ]
      }
    },
    {
      "type": "Feature",
      "properties": {
        "name": "Media Mecca",
        "type": "CPN",
        "status": "autofilled",
        "residual_ft": ""
      },
      "geometry": {
        "type": "Point",
        "coordinates": [
          -119.21631646699996,
          40.77930392600007
        ]
      }
    },
    {
      "type": "Feature",
      "properties": {
        "name": "Rampart",
        "type": "CPN",
        "status": "autofilled",
        "residual_ft": ""
      },
      "geometry": {
        "type": "Point",
        "coordinates": [
          -119.21164195199998,
          40.77634967800003
        ]
      }
    },
    {
      "type": "Feature",
      "properties": {
        "name": "ESD Station 3",
        "type": "CPN",
        "status": "autofilled",
        "residual_ft": ""
      },
      "geometry": {
        "type": "Point",
        "coordinates": [
          -119.19898126499999,
          40.776197815000046
        ]
      }
    },
    {
      "type": "Feature",
      "properties": {
        "name": "ESD Station 9",
        "type": "CPN",
        "status": "autofilled",
        "residual_ft": ""
      },
      "geometry": {
        "type": "Point",
        "coordinates": [
          -119.21678794199994,
          40.79029558600007
        ]
      }
    },
    {
      "type": "Feature",
      "properties": {
        "name": "Playa Info",
        "type": "CPN",
        "status": "autofilled",
        "residual_ft": ""
      },
      "geometry": {
        "type": "Point",
        "coordinates": [
          -119.21304520599995,
          40.77786411400007
        ]
      }
    },
    {
      "type": "Feature",
      "properties": {
        "name": "Greeters",
        "type": "CPN",
        "status": "autofilled",
        "residual_ft": ""
      },
      "geometry": {
        "type": "Point",
        "coordinates": [
          -119.22540326899997,
          40.769913047000045
        ]
      }
    },
    {
      "type": "Feature",
      "properties": {
        "name": "Point 2",
        "type": "CPN",
        "status": "autofilled",
        "residual_ft": ""
      },
      "geometry": {
        "type": "Point",
        "coordinates": [
          -119.22140764699998,
          40.80352097200006
        ]
      }
    },
    {
      "type": "Feature",
      "properties": {
        "name": "Point 3",
        "type": "CPN",
        "status": "autofilled",
        "residual_ft": ""
      },
      "geometry": {
        "type": "Point",
        "coordinates": [
          -119.18672255299998,
          40.799326749000045
        ]
      }
    },
    {
      "type": "Feature",
      "properties": {
        "name": "Point 4",
        "type": "CPN",
        "status": "autofilled",
        "residual_ft": ""
      },
      "geometry": {
        "type": "Point",
        "coordinates": [
          -119.18123966399997,
          40.77288403700004
        ]
      }
    },
    {
      "type": "Feature",
      "properties": {
        "name": "Point 5",
        "type": "CPN",
        "status": "autofilled",
        "residual_ft": ""
      },
      "geometry": {
        "type": "Point",
        "coordinates": [
          -119.21258152999997,
          40.76078824600006
        ]
      }
    },
    {
      "type": "Feature",
      "properties": {
        "name": "3 & G Plaza",
        "type": "CPN",
        "status": "autofilled",
        "residual_ft": ""
      },
      "geometry": {
        "type": "Point",
        "coordinates": [
          -119.195564978,
          40.77388260300006
        ]
      }
    },
    {
      "type": "Feature",
      "properties": {
        "name": "9 & G Plaza",
        "type": "CPN",
        "status": "autofilled",
        "residual_ft": ""
      },
      "geometry": {
        "type": "Point",
        "coordinates": [
          -119.22020667399994,
          40.79261096100004
        ]
      }
    },
    {
      "type": "Feature",
      "properties": {
        "name": "6 & G Plaza",
        "type": "CPN",
        "status": "autofilled",
        "residual_ft": ""
      },
      "geometry": {
        "type": "Point",
        "coordinates": [
          -119.22020267499994,
          40.77388092800004
        ]
      }
    },
    {
      "type": "Feature",
      "properties": {
        "name": "ESD Station 6",
        "type": "CPN",
        "status": "autofilled",
        "residual_ft": ""
      },
      "geometry": {
        "type": "Point",
        "coordinates": [
          -119.21140017999994,
          40.77679346600007
        ]
      }
    },
    {
      "type": "Feature",
      "properties": {
        "name": "Center Camp",
        "type": "CPN",
        "status": "entered",
        "residual_ft": "0.0"
      },
      "geometry": {
        "type": "Point",
        "coordinates": [
          -119.21561156099995,
          40.777372264000064
        ]
      }
    },
    {
      "type": "Feature",
      "properties": {
        "name": "The Man",
        "type": "CPN",
        "status": "entered",
        "residual_ft": "0.0"
      },
      "geometry": {
        "type": "Point",
        "coordinates": [
          -119.20788409599999,
          40.783247448000054
        ]
      }
    },
    {
      "type": "Feature",
      "properties": {
        "name": "The Temple",
        "type": "CPN",
        "status": "autofilled",
        "residual_ft": ""
      },
      "geometry": {
        "type": "Point",
        "coordinates": [
          -119.201499636,
          40.78809942300006
        ]
      }
    },
    {
      "type": "Feature",
      "properties": {
        "name": "Ranger Station Berlin",
        "type": "CPN",
        "status": "autofilled",
        "residual_ft": ""
      },
      "geometry": {
        "type": "Point",
        "coordinates": [
          -119.19861233699999,
          40.776482660000056
        ]
      }
    },
    {
      "type": "Feature",
      "properties": {
        "name": "Ranger Station Tokyo",
        "type": "CPN",
        "status": "autofilled",
        "residual_ft": ""
      },
      "geometry": {
        "type": "Point",
        "coordinates": [
          -119.21722282099995,
          40.79006203500006
        ]
      }
    },
    {
      "type": "Feature",
      "properties": {
        "name": "Ranger HQ",
        "type": "CPN",
        "status": "autofilled",
        "residual_ft": ""
      },
      "geometry": {
        "type": "Point",
        "coordinates": [
          -119.21637985099994,
          40.77992492200008
        ]
      }
    },
    {
      "type": "Feature",
      "properties": {
        "name": "Hell Station",
        "type": "CPN",
        "status": "autofilled",
        "residual_ft": ""
      },
      "geometry": {
        "type": "Point",
        "coordinates": [
          -119.21921726299996,
          40.79810648100005
        ]
      }
    },
    {
      "type": "Feature",
      "properties": {
        "name": "Ice Nine Arctica",
        "type": "CPN",
        "status": "autofilled",
        "residual_ft": ""
      },
      "geometry": {
        "type": "Point",
        "coordinates": [
          -119.22083140199999,
          40.792716950000056
        ]
      }
    },
    {
      "type": "Feature",
      "properties": {
        "name": "Arctica Center Camp",
        "type": "CPN",
        "status": "autofilled",
        "residual_ft": ""
      },
      "geometry": {
        "type": "Point",
        "coordinates": [
          -119.21676303799995,
          40.77827790500004
        ]
      }
    },
    {
      "type": "Feature",
      "properties": {
        "name": "Ice Cubed Arctica 3",
        "type": "CPN",
        "status": "autofilled",
        "residual_ft": ""
      },
      "geometry": {
        "type": "Point",
        "coordinates": [
          -119.19491010999997,
          40.77376366800007
        ]
      }
    },
    {
      "type": "Feature",
      "properties": {
        "name": "Department of Mutant Vehicles (DMV)",
        "type": "CPN",
        "status": "autofilled",
        "residual_ft": ""
      },
      "geometry": {
        "type": "Point",
        "coordinates": [
          -119.21246267199996,
          40.77896144400006
        ]
      }
    },
    {
      "type": "Feature",
      "properties": {
        "name": "Deep-Playa Music Zone (DMZ)",
        "type": "CPN",
        "status": "autofilled",
        "residual_ft": ""
      },
      "geometry": {
        "type": "Point",
        "coordinates": [
          -119.20376686899999,
          40.79920382300003
        ]
      }
    },
    {
      "type": "Feature",
      "properties": {
        "name": "Point 1",
        "type": "CPN",
        "status": "autofilled",
        "residual_ft": ""
      },
      "geometry": {
        "type": "Point",
        "coordinates": [
          -119.23741804699995,
          40.77971035400003
        ]
      }
    },
    {
      "type": "Feature",
      "properties": {
        "name": "430 & B Plaza",
        "type": "CPN",
        "status": "autofilled",
        "residual_ft": ""
      },
      "geometry": {
        "type": "Point",
        "coordinates": [
          -119.20788344999994,
          40.774422505000075
        ]
      }
    },
    {
      "type": "Feature",
      "properties": {
        "name": "730 & B Plaza",
        "type": "CPN",
        "status": "autofilled",
        "residual_ft": ""
      },
      "geometry": {
        "type": "Point",
        "coordinates": [
          -119.21949414699998,
          40.783246373000054
        ]
      }
    },
    {
      "type": "Feature",
      "properties": {
        "name": "BLM LE Substation",
        "type": "CPN",
        "status": "autofilled",
        "residual_ft": ""
      },
      "geometry": {
        "type": "Point",
        "coordinates": [
          -119.21096083099997,
          40.77666457300006
        ]
      }
    },
    {
      "type": "Feature",
      "properties": {
        "name": "Burner Express Bus Depot",
        "type": "CPN",
        "status": "autofilled",
        "residual_ft": ""
      },
      "geometry": {
        "type": "Point",
        "coordinates": [
          -119.22271946799998,
          40.77335492200007
        ]
      }
    },
    {
      "type": "Feature",
      "properties": {
        "name": "Walk-In Camp",
        "type": "CPN",
        "status": "autofilled",
        "residual_ft": ""
      },
      "geometry": {
        "type": "Point",
        "coordinates": [
          -119.20165970799997,
          40.76605138100007
        ]
      }
    },
    {
      "type": "Feature",
      "properties": {
        "name": "Box Office",
        "type": "CPN",
        "status": "autofilled",
        "residual_ft": ""
      },
      "geometry": {
        "type": "Point",
        "coordinates": [
          -119.23567012199999,
          40.768226895000055
        ]
      }
    },
    {
      "type": "Feature",
      "properties": {
        "name": "Gate Actual",
        "type": "CPN",
        "status": "entered",
        "residual_ft": "0.0"
      },
      "geometry": {
        "type": "Point",
        "coordinates": [
          -119.23408814999999,
          40.768725267000036
        ]
      }
    },
    {
      "type": "Feature",
      "properties": {
        "name": "Will Call Lot",
        "type": "CPN",
        "status": "autofilled",
        "residual_ft": ""
      },
      "geometry": {
        "type": "Point",
        "coordinates": [
          -119.23704641499995,
          40.768406146000075
        ]
      }
    },
    {
      "type": "Feature",
      "properties": {
        "name": "D Lot",
        "type": "CPN",
        "status": "autofilled",
        "residual_ft": ""
      },
      "geometry": {
        "type": "Point",
        "coordinates": [
          -119.23382482199997,
          40.76817831400007
        ]
      }
    },
    {
      "type": "Feature",
      "properties": {
        "name": "Census Checkpoint",
        "type": "CPN",
        "status": "autofilled",
        "residual_ft": ""
      },
      "geometry": {
        "type": "Point",
        "coordinates": [
          -119.22793799399994,
          40.76756691300005
        ]
      }
    },
    {
      "type": "Feature",
      "properties": {
        "name": "Artery",
        "type": "CPN",
        "status": "autofilled",
        "residual_ft": ""
      },
      "geometry": {
        "type": "Point",
        "coordinates": [
          -119.21486065999994,
          40.779380927000034
        ]
      }
    },
    {
      "type": "Feature",
      "properties": {
        "name": "Yellow Bike Project",
        "type": "CPN",
        "status": "autofilled",
        "residual_ft": ""
      },
      "geometry": {
        "type": "Point",
        "coordinates": [
          -119.21454512899999,
          40.773927429000025
        ]
      }
    },
    {
      "type": "Feature",
      "properties": {
        "name": "Recycle Camp",
        "type": "CPN",
        "status": "autofilled",
        "residual_ft": ""
      },
      "geometry": {
        "type": "Point",
        "coordinates": [
          -119.21302995699995,
          40.77695070600004
        ]
      }
    },
    {
      "type": "Feature",
      "properties": {
        "name": "Arctica Outpost",
        "type": "CPN",
        "status": "autofilled",
        "residual_ft": ""
      },
      "geometry": {
        "type": "Point",
        "coordinates": [
          -119.22397821799996,
          40.773695632000056
        ]
      }
    },
    {
      "type": "Feature",
      "properties": {
        "name": "10 & B Plaza",
        "type": "CPN",
        "status": "autofilled",
        "residual_ft": ""
      },
      "geometry": {
        "type": "Point",
        "coordinates": [
          -119.21133013999997,
          40.79167623600006
        ]
      }
    },
    {
      "type": "Feature",
      "properties": {
        "name": "2 & B Plaza",
        "type": "CPN",
        "status": "autofilled",
        "residual_ft": ""
      },
      "geometry": {
        "type": "Point",
        "coordinates": [
          -119.19679557199998,
          40.78062786800007
        ]
      }
    },
    {
      "type": "Feature",
      "properties": {
        "name": "Deep-Playa Music Zone 2 (DMZ2)",
        "type": "CPN",
        "status": "autofilled",
        "residual_ft": ""
      },
      "geometry": {
        "type": "Point",
        "coordinates": [
          -119.18433984899997,
          40.77845023700007
        ]
      }
    },
    {
      "type": "Feature",
      "properties": {
        "name": "3:00 & G Plaza",
        "type": "Plaza",
        "status": "autofilled",
        "residual_ft": ""
      },
      "geometry": {
        "type": "Point",
        "coordinates": [
          -119.19556729224519,
          40.7738875449565
        ]
      }
    },
    {
      "type": "Feature",
      "properties": {
        "name": "4:30 & G Plaza",
        "type": "Plaza",
        "status": "autofilled",
        "residual_ft": ""
      },
      "geometry": {
        "type": "Point",
        "coordinates": [
          -119.20788409436749,
          40.770009720869666
        ]
      }
    },
    {
      "type": "Feature",
      "properties": {
        "name": "6:00 & G Plaza",
        "type": "Plaza",
        "status": "autofilled",
        "residual_ft": ""
      },
      "geometry": {
        "type": "Point",
        "coordinates": [
          -119.22020089760449,
          40.773887542925344
        ]
      }
    },
    {
      "type": "Feature",
      "properties": {
        "name": "7:30 & G Plaza",
        "type": "Plaza",
        "status": "autofilled",
        "residual_ft": ""
      },
      "geometry": {
        "type": "Point",
        "coordinates": [
          -119.225305131438,
          40.78325035379234
        ]
      }
    },
    {
      "type": "Feature",
      "properties": {
        "name": "9:00 & G Plaza",
        "type": "Plaza",
        "status": "autofilled",
        "residual_ft": ""
      },
      "geometry": {
        "type": "Point",
        "coordinates": [
          -119.22020436025882,
          40.792614465256754
        ]
      }
    },
    {
      "type": "Feature",
      "properties": {
        "name": "9:00 & B Plaza",
        "type": "Plaza",
        "status": "autofilled",
        "residual_ft": ""
      },
      "geometry": {
        "type": "Point",
        "coordinates": [
          -119.21609218309273,
          40.78948985482367
        ]
      }
    },
    {
      "type": "Feature",
      "properties": {
        "name": "7:30 & B Plaza",
        "type": "Plaza",
        "status": "autofilled",
        "residual_ft": ""
      },
      "geometry": {
        "type": "Point",
        "coordinates": [
          -119.21949182575538,
          40.78325108533767
        ]
      }
    },
    {
      "type": "Feature",
      "properties": {
        "name": "4:30 & B Plaza",
        "type": "Plaza",
        "status": "autofilled",
        "residual_ft": ""
      },
      "geometry": {
        "type": "Point",
        "coordinates": [
          -119.20788409500307,
          40.7744284915341
        ]
      }
    },
    {
      "type": "Feature",
      "properties": {
        "name": "3:00 & B Plaza",
        "type": "Plaza",
        "status": "autofilled",
        "residual_ft": ""
      },
      "geometry": {
        "type": "Point",
        "coordinates": [
          -119.19967754532647,
          40.77701289675478
        ]
      }
    },
    {
      "type": "Feature",
      "properties": {
        "name": "Center Camp Plaza",
        "type": "Plaza",
        "status": "autofilled",
        "residual_ft": ""
      },
      "geometry": {
        "type": "Point",
        "coordinates": [
          -119.21553966559794,
          40.77743413827455
        ]
      }
    },
    {
      "type": "Feature",
      "properties": {
        "name": "2:00 & B Plaza",
        "type": "Plaza",
        "status": "autofilled",
        "residual_ft": ""
      },
      "geometry": {
        "type": "Point",
        "coordinates": [
          -119.19677811997397,
          40.78060617938551
        ]
      }
    },
    {
      "type": "Feature",
      "properties": {
        "name": "10:00 & B Plaza",
        "type": "Plaza",
        "status": "autofilled",
        "residual_ft": ""
      },
      "geometry": {
        "type": "Point",
        "coordinates": [
          -119.2113516801697,
          40.79164028354509
        ]
      }
    }
  ]
}